{
    "links": {
        "self": "http://www.neowsapp.com/rest/v1/neo/3694784?api_key=iIulBulltgU6a56xZRHN4H3l9WmuAYTsLGpBGhQ2"
    },
    "id": "3694784",
    "neo_reference_id": "3694784",
    "name": "(2014 UL115)",
    "designation": "2014 UL115",
    "nasa_jpl_url": "http://ssd.jpl.nasa.gov/sbdb.cgi?sstr=3694784",
    "absolute_magnitude_h": 24.2,
    "estimated_diameter": {
        "kilometers": {
            "estimated_diameter_min": 0.0384197891,
            "estimated_diameter_max": 0.0859092601
        },
        "meters": {
            "estimated_diameter_min": 38.4197891064,
            "estimated_diameter_max": 85.9092601232
        },
        "miles": {
            "estimated_diameter_min": 0.0238729428,
            "estimated_diameter_max": 0.0533815229
        },
        "feet": {
            "estimated_diameter_min": 126.0491808919,
            "estimated_diameter_max": 281.8545369825
        }
    },
    "is_potentially_hazardous_asteroid": false,
    "close_approach_data": [
        {
            "close_approach_date": "2014-11-15",
            "close_approach_date_full": "2014-Nov-15 03:22",
            "epoch_date_close_approach": 1416021720000,
            "relative_velocity": {
                "kilometers_per_second": "10.0099050327",
                "kilometers_per_hour": "36035.6581176394",
                "miles_per_hour": "22391.1565675965"
            },
            "miss_distance": {
                "astronomical": "0.0720291185",
                "lunar": "28.0193270965",
                "kilometers": "10775402.705577595",
                "miles": "6695524.765637011"
            },
            "orbiting_body": "Earth"
        }
    ],
    "orbital_data": {
        "orbit_id": "7",
        "orbit_determination_date": "2017-04-06 08:37:47",
        "first_observation_date": "2014-10-26",
        "last_observation_date": "2014-11-18",
        "data_arc_in_days": 23,
        "observations_used": 24,
        "orbit_uncertainty": "8",
        "minimum_orbit_intersection": ".0459507",
        "jupiter_tisserand_invariant": "3.868",
        "epoch_osculation": "2456961.5",
        "eccentricity": ".4832886931080471",
        "semi_major_axis": "1.838838452432773",
        "inclination": "4.143634838555061",
        "ascending_node_longitude": "23.90110642742384",
        "orbital_period": "910.7806434259635",
        "perihelion_distance": ".9501486199197142",
        "perihelion_argument": "70.00814850328383",
        "aphelion_distance": "2.727528284945832",
        "perihelion_time": "2457007.814904226492",
        "mean_anomaly": "341.6933246859319",
        "mean_motion": ".3952653172841217",
        "equinox": "J2000",
        "orbit_class": {
            "orbit_class_type": "APO",
            "orbit_class_description": "Near-Earth asteroid orbits which cross the Earth’s orbit similar to that of 1862 Apollo",
            "orbit_class_range": "a (semi-major axis) > 1.0 AU; q (perihelion) < 1.017 AU"
        }
    },
    "is_sentry_object": false
}